Corporation Name,Zip Code,State,City
Young-Thompson,25733,Maryland,Lake Tiffanyshire
Kelley-Murphy,66079,Nebraska,North Briana
Rush-Hunter,67538,Kentucky,North Kimberlyborough
Montgomery-Mason,04529,South Dakota,Kathrynbury
Parker-Cooper,49691,Louisiana,Dianemouth
Lopez Group,04402,Hawaii,Port Christopher
Adkins Inc,21316,Utah,East Elizabethfort
"Williams, Clarke and Martin",54504,Florida,West Heatherchester
Freeman-Smith,86495,Connecticut,West Erikamouth
"Miller, Gomez and Hardy",76402,Alabama,South Michael
"Eaton, Shah and Dixon",04064,Rhode Island,New Jamesside
Wilson-Holt,29120,Pennsylvania,Jillianland
"Parrish, Long and Mills",01808,Arkansas,New Melaniebury
Bradford Group,35873,Minnesota,Mckinneyfort
Hayes-Montes,76246,New York,Phelpsview
Wood-Hale,58032,Nebraska,South Michaelfurt
Bartlett-Lowe,48440,Massachusetts,North Heatherton
"Ortega, Barker and Kelly",18305,North Dakota,South Brian
"Hunt, Wall and Johnson",89809,Maine,Darrenstad
Hanna-Johnson,65696,Rhode Island,Holdershire
Johnson-Fisher,95108,Texas,North James
Davis-Carrillo,66897,Arizona,West Brandon
Roberts Group,60868,Michigan,North Amy
Clarke-Mack,75696,New York,Nicholsfurt
Bowman-Anderson,17156,New York,Lake Emilystad
"Schmidt, Robinson and Johnson",48575,Colorado,West Brandonmouth
"Ortiz, Chang and Greene",15688,Hawaii,Brandonshire
"Ramirez, Frey and Petersen",32276,Vermont,New Kevinhaven
Burke LLC,79359,Utah,Carlaton
"Alvarez, Walter and Robinson",49358,Minnesota,Piercemouth
Martinez-Baker,95107,Oklahoma,Gainesburgh
Miller Group,67041,Tennessee,Wongchester
Johnson-Terry,94360,Indiana,Port Alyssafurt
"Morales, Davis and Smith",30162,Missouri,Catherinemouth
Sellers Inc,20374,Florida,Whitechester
"Stewart, Price and Bray",35843,Idaho,Gouldton
"Barton, Larson and Howard",12210,Massachusetts,Lake Sharonville
Smith-Mills,75979,South Carolina,East James
Leach-Kelly,73629,Nebraska,Port Nicholaston
Rivera Ltd,91222,Texas,Olsonport
Parker LLC,48069,New Jersey,Nelsonton
Quinn Group,08441,Alabama,Lake Jamesmouth
"Dunlap, Medina and Young",53907,Delaware,Castroville
Jacobs-Ayala,05269,Georgia,Masonmouth
"Phillips, Gibson and Thompson",49305,Arkansas,New Emilychester
Thompson-Henderson,49540,Colorado,Edwardsland
"Knight, Pearson and Sanders",35348,Arkansas,New Briannafort
Mendoza Ltd,89675,Ohio,Valeriestad
Martin Inc,39024,New Mexico,West Johnburgh
"Davis, Vasquez and Mejia",15309,Iowa,Charleschester
Miller LLC,03665,Rhode Island,East Jonathanbury
"Mcdonald, Peck and Mejia",06942,North Carolina,Kirkmouth
Wright-Welch,17021,Kentucky,Lindsayland
Horton LLC,45004,Wyoming,Davidside
Weiss PLC,46483,Vermont,Stacymouth
Kent-Young,82365,Ohio,North Jackchester
Robinson-Moyer,63131,Utah,Moraleston
Barnett LLC,69299,South Dakota,Velasquezview
Erickson Group,03266,Washington,East Danny
"Parrish, Payne and Morgan",28375,Vermont,East Daniel
Conley PLC,81650,Oklahoma,Derekport
Buchanan Inc,97984,Texas,Bryanburgh
Thompson and Sons,98146,Alabama,Jonesberg
Fleming-Jones,00671,Massachusetts,South Mary
"Brown, Martinez and Barnes",48767,New Jersey,Jillview
"Flores, Perkins and Hernandez",45672,Illinois,New Michelleton
Payne PLC,22495,Idaho,Santiagotown
Berry-Weaver,41722,Kansas,Smithfort
Robinson Ltd,30170,Hawaii,West Curtis
"Morgan, Velez and Hayes",88978,Oklahoma,Russellfort
Larson-Salinas,87861,West Virginia,Butlerchester
Clark-Reese,65931,West Virginia,Port Alexander
Burnett LLC,49867,Vermont,Garrettburgh
"Lopez, Salinas and Richardson",70292,North Carolina,Wilsonstad
Coffey LLC,86571,Ohio,Wongburgh
Strickland-Roberts,04160,New Hampshire,Port Jenniferville
"Larson, Reid and Anderson",72135,South Carolina,Williamsshire
"Carson, Morgan and Osborne",19685,Georgia,Hartbury
Olsen-Gomez,15927,Texas,West Anthonyfurt
Bennett-Rodriguez,51087,Delaware,Leeborough
Ramirez and Sons,14911,Delaware,Lake Shawn
"Olson, Stanley and Horton",24930,Washington,North Cynthia
Allison Inc,30905,Louisiana,Brownchester
Carpenter LLC,25406,Wisconsin,Victoriachester
Lewis Inc,55816,Tennessee,New Patrickville
Taylor PLC,66316,Arizona,Brandtborough
Henry LLC,46222,Alaska,North Melindaland
Williams-Baxter,23623,North Dakota,Hollyshire
Hunter Group,70708,Rhode Island,Emilyland
"Carson, Hampton and Daniels",41252,Georgia,Bowmanport
Kelly PLC,99436,Louisiana,North Jasonhaven
Holt and Sons,91001,Colorado,South Patrickmouth
"Clark, Howell and Wiggins",62757,Hawaii,East Calvin
Robinson and Sons,21246,South Carolina,Pooleland
Richardson-Duarte,40854,South Dakota,Spencerstad
"Garcia, Guerrero and Weiss",18844,Illinois,Wilsonmouth
"Gomez, Gray and Morgan",92183,Mississippi,West Jennifer
"Santiago, Holmes and Johnson",02806,Louisiana,Mccarthychester
Manning Inc,44885,Tennessee,South Jeffrey
Goodwin-Rivera,97503,Vermont,Knightland
Reynolds-Moyer,42902,Oklahoma,Gregoryfurt
Cruz-Green,68114,Tennessee,North Carl
Johnson-Mccoy,91917,Maryland,North Brandonshire
"Curtis, Moss and Yang",61386,Montana,Scottmouth
Ray Ltd,73826,Minnesota,South Anthonytown
Davis-Hopkins,99648,Hawaii,Port Robert
"Hall, Rodriguez and Kirby",71003,North Carolina,South Jessica
Evans-Alvarez,51205,Delaware,Hudsonburgh
Hahn-Anderson,07792,Kentucky,Kellyton
"Wells, Walker and Murray",70848,New Hampshire,New Jenniferview
"Mullen, Nelson and Smith",52729,Wyoming,East Amychester
Acosta-Herman,15564,New Mexico,Kirstenville
Glover-Gray,20395,Nevada,Villanuevashire
Alvarez LLC,87531,Louisiana,Lynnborough
Williamson-Marks,21224,Louisiana,Paulchester
Taylor-Hunter,38018,Missouri,West Thomasberg
Ewing Inc,27920,Delaware,South Lisa
"Garcia, Shields and Nunez",32898,Delaware,Lake Brett
"Graves, Moore and Conway",26276,Vermont,Boydhaven
Decker and Sons,05348,Virginia,West Daniel
"Jones, Walker and Richardson",59107,North Carolina,East Alfredburgh
"Rodriguez, Le and Espinoza",27560,Missouri,Debbietown
Jones Ltd,81426,Pennsylvania,Port Joshua
"Campbell, Holt and Miller",36001,West Virginia,Jeffreyton
"Brown, Ward and Gomez",79079,Kansas,Lake Paul
"Hernandez, Scott and Diaz",79558,Arizona,Port John
Herring-Franklin,64564,Colorado,West Jacobfort
"Mcdonald, Gomez and Miller",90829,Connecticut,Thompsonfurt
Campbell Ltd,11717,Pennsylvania,Mejiaville
"Adams, Davis and Maddox",56841,Vermont,Nguyenton
Little-Mckay,24873,Michigan,Tanyaville
Callahan PLC,51308,Missouri,Crystaltown
"Hernandez, Butler and Castillo",27301,Ohio,Pageburgh
"Ortega, James and Hamilton",92901,Massachusetts,Reyeshaven
Jones LLC,92754,New Mexico,Taylorshire
"Johnson, Allen and Barber",16424,Ohio,Port Jamesport
Mathis-Duran,33880,Louisiana,Port Emily
Young-Huerta,05716,Minnesota,Mitchellburgh
King Ltd,61107,West Virginia,Theresatown
"Harmon, Oneill and Smith",75748,Idaho,South Jeffrey
"Mendoza, Brown and Smith",07568,Wisconsin,Paulaview
Ho LLC,20072,Indiana,East Kristin
Hopkins and Sons,37722,Nebraska,Thompsonbury
"Collier, Phillips and Williams",97982,South Dakota,Smithshire
Lopez-Ramirez,94976,Hawaii,New Nathanchester
"Steele, Smith and Hammond",27569,Louisiana,Dianeborough
Benjamin-Quinn,19002,Ohio,Stanleyburgh
Webb Inc,28880,Nebraska,North Hannahtown
"Johnson, Anderson and Reyes",41942,Minnesota,Leeburgh
Thomas-Miller,94013,Vermont,New Sean
Golden Ltd,61207,Texas,Paulmouth
"Gray, Davis and Ellis",84762,Maine,South David
Reed and Sons,54418,Oklahoma,Rebeccamouth
Martin and Sons,63926,New York,Chrisshire
Bowen PLC,99686,Hawaii,East Annetteshire
Thomas-Fischer,20777,Alabama,Kimberlyborough
"Clayton, Patterson and Rodriguez",08469,Pennsylvania,Millermouth
Weeks Group,22758,Vermont,Lake Kristenland
Peterson-Gomez,13909,Oregon,South Maurice
Porter Group,19076,Tennessee,Kellymouth
"Shah, Sanders and Rodriguez",31219,Minnesota,Stephaniebury
"Hernandez, Morris and Bell",44843,Illinois,West Justinborough
"Jenkins, Marshall and Flores",65939,Missouri,Johnsonchester
Jones Inc,67786,Tennessee,Melissamouth
Valdez Ltd,73645,South Dakota,Rodriguezberg
Bell Group,22610,Virginia,New Jamesburgh
Gamble LLC,79268,Illinois,South Michaelville
Villarreal Ltd,81949,Illinois,North Anthony
"Wright, Green and Gonzalez",50496,Texas,Dianaberg
"Reynolds, Anderson and Lee",68793,Georgia,Fosterstad
"Blackwell, Burgess and Petersen",09933,Nebraska,Flowersfurt
Martinez and Sons,89904,Massachusetts,Leonardmouth
Glover and Sons,61519,Nevada,Jennifershire
"Carrillo, Ward and Morgan",83689,Vermont,Andersonfort
Reyes-Young,07004,Louisiana,Mcdonaldtown
"Perez, Woodard and Perez",63920,Maine,Lake Christopherberg
Martinez-Williams,73615,Hawaii,South Miguelmouth
Randolph PLC,14698,Illinois,Jeffreyview
Terrell Inc,04611,Maryland,South Matthew
Short PLC,68390,Kansas,Mileshaven
Henderson-Flores,72208,Wisconsin,East Austinside
"Koch, Johnson and Liu",20527,Illinois,West Heidi
"Finley, Thompson and Powell",35016,Kentucky,East Denisemouth
Roberts Ltd,10568,South Dakota,Wilsonshire
"Cooper, Rogers and Ball",94714,Missouri,Jacksonburgh
"Williams, Lopez and White",29846,Wyoming,Warnerfurt
"Bennett, Mccarty and Phillips",62985,Wisconsin,Orrborough
Lawson-Robinson,37702,North Carolina,Ruizshire
Flores Inc,21174,Arkansas,New Madison
Lewis-Mcclure,57749,Kentucky,Austinbury
Gonzalez-Richardson,49991,Nevada,North Angela
"Thompson, Cooper and King",92471,Vermont,Debramouth
"Ryan, Smith and Bowman",83324,Delaware,South Monicashire
Johnson-Winters,37883,New Mexico,Barryton
"Norris, Ward and Wyatt",87879,Rhode Island,New Ryan
"Alvarado, Perkins and Willis",69948,North Carolina,Natalieport
"Crawford, Hahn and Bauer",69562,Alaska,North Chrischester
"Byrd, Kim and Carr",78698,Virginia,North Derricktown
Meyer-Sharp,34502,North Dakota,Lake Sharonshire
Barnes LLC,02908,Alabama,Susanfort
Wilkerson PLC,13574,New Mexico,Craigfort
Key Group,82720,Oregon,South Lisachester
"Moore, Scott and Willis",66945,Wyoming,Jessicaland
Lewis Inc,55810,North Carolina,Tatemouth
Harris-Fields,57744,Rhode Island,Stricklandfurt
"Sullivan, Vazquez and Morrison",41520,Michigan,Port Wendy
Harris-Jones,77885,Washington,Kristinastad
Wagner-Santana,72038,Arizona,Wendyhaven
"Lee, Rivera and Gonzalez",69134,Tennessee,East Sara
Jackson-Green,70946,Delaware,Cynthiaside
Atkins LLC,30588,North Carolina,Lake Ruthburgh
"Hahn, Foster and Leblanc",74958,Illinois,Lisabury
Downs-Green,58712,Pennsylvania,Jillmouth
"Sheppard, Lowery and Martinez",55417,Maryland,Louisside
Sanders-Evans,86681,Missouri,East Amberbury
Bailey-Benson,93234,Delaware,Mirandafurt
Jones-Jordan,40571,Wyoming,Haroldview
"Lopez, Murray and Thomas",02252,Oregon,Port Jessica
Morgan-Buckley,37723,New Jersey,North Justin
Mccarthy-Burnett,50738,Oregon,East Lindatown
"Melton, Rivera and Gomez",98384,Connecticut,New Edwardport
"Olson, Fischer and Francis",15091,Oregon,Laurenmouth
Brown PLC,97409,Alabama,Paulachester
Cruz and Sons,36501,Arkansas,South Ethan
Oliver-Mckinney,43346,Maine,Johntown
Ferguson-Christian,64251,Pennsylvania,Christopherberg
Stevenson LLC,35201,Mississippi,Paulberg
"Moore, Thomas and Bradley",27476,Georgia,Jennifermouth
Johnson Group,87331,New Mexico,North Frankview
Hernandez and Sons,60631,Wyoming,Williamsland
"Brown, Miller and Brown",50808,Mississippi,Edwardborough
Douglas-White,08285,New Hampshire,South Kennethland
Zimmerman PLC,64299,Vermont,Diazfurt
Tate Inc,40685,New Hampshire,Jamesbury
Mccullough Group,22246,Idaho,Cherylstad
Malone Group,17220,Georgia,Michaelmouth
Maynard Ltd,36308,Pennsylvania,Jasonfort
Kelley-Perkins,45345,New Jersey,Solisshire
Lloyd-Jones,46123,Oklahoma,Wintersburgh
Smith Inc,76983,Hawaii,Port Karenland
"Hall, Gregory and Oliver",48332,Colorado,Taylorbury
Alvarez-Tucker,50001,New Jersey,Kimhaven
Francis-Clark,91101,Minnesota,South Kelseymouth
"Garcia, Frazier and Andrews",91256,California,West Adam
"Mckinney, Richards and Gallagher",16532,New York,Hawkinsshire
Martinez LLC,51538,Kentucky,Debrahaven
Watts-Jones,16522,Nebraska,Julietown
Cox-Maldonado,50209,Minnesota,Reedview
Anderson-Dixon,26689,Indiana,Duffyborough
Kelly Ltd,21712,Ohio,North Emily
Williams Inc,83461,Illinois,Lake Josephstad
"Meyers, Delgado and Richardson",31035,Oregon,Beltranview
Myers and Sons,71517,Florida,Cheyennestad
Dixon-Lester,93567,Minnesota,Maryside
Wong and Sons,42021,Missouri,Mccarthyport
Young PLC,03095,Rhode Island,Brianborough
Butler LLC,41326,California,Andersonview
Robbins Inc,29907,Arkansas,Willisfurt
Sanders-Thompson,46244,Wyoming,Lake Jill
Morris Inc,87029,Virginia,Mooremouth
Reid LLC,96973,Ohio,Lake Matthewmouth
Guerra-Jenkins,06688,Washington,Markberg
Herrera LLC,12939,Florida,Port Thomas
Cook LLC,30851,Maine,Allenburgh
Douglas Inc,57698,Michigan,North Ericaside
Bates Inc,39247,Nevada,Nelsonchester
Mccoy-Jefferson,56022,Texas,North Christine
"Hughes, Watson and Montes",33911,Wisconsin,North Kimborough
"Abbott, Shaffer and Lopez",68492,Delaware,Loganmouth
Casey Inc,30394,Oregon,Aliciashire
Mcdonald LLC,14017,Wisconsin,East David
Smith Ltd,71213,South Dakota,North John
"Gonzalez, Douglas and Robles",80119,Missouri,Emilybury
Evans Inc,87447,Texas,Sarahside
Sanchez-Young,74198,Nebraska,Stephaniemouth
Acosta-Scott,05534,Alaska,West Kathyland
Brown PLC,12280,Wyoming,West Ryan
Burton Ltd,65100,New Mexico,Lake Edwin
Baker-Ray,84560,Wyoming,Marquezstad
"Rodriguez, Merritt and Miller",96872,Nevada,Chapmanville
Boone-Levine,84054,South Dakota,Elizabethview
"Ortega, Marshall and Clark",53225,Hawaii,Carrilloland
"Gonzales, Davis and Mcfarland",78285,New York,West Julie
Warner-Hill,19999,California,South Brandon
Perkins LLC,21858,Utah,South Sheilachester
Spence-Owens,57618,Arizona,Gouldchester
Shields Inc,83838,Mississippi,South Patrick
Miller-Hernandez,13558,North Carolina,South Amberville
"Rogers, Johnson and Osborne",33604,Idaho,Port Julia
Hughes Ltd,34197,New Jersey,Christineborough
"Murphy, Garner and Jimenez",37810,Georgia,Amyland
Lopez-Green,34570,Montana,Brianashire
Long-Ellis,83116,North Carolina,Webertown
Bridges-Howard,52574,Connecticut,New Bonnie
"Collins, Martinez and Duffy",37541,Delaware,Ellisside
Brown-Jones,51233,Texas,South Kellytown
"Howell, Stevens and Jones",57074,Alaska,North Michaelborough
"Miller, Griffin and Nelson",84790,Rhode Island,North Elizabethside
"Miles, Lawson and Shelton",32273,Wisconsin,Kristinahaven
"King, Bray and Rice",55430,Vermont,Lake Jordanfurt
"Oconnor, Johnson and Gordon",57041,Alabama,Ricardohaven
"Lewis, Allen and Mann",21940,Pennsylvania,Ericview
"Brown, Guzman and Stevens",72447,Delaware,Port Jennaview
"Banks, Torres and Jackson",76008,Washington,South Dennishaven
Miller-Cline,75985,Louisiana,Port Davidfurt
"Smith, Andrews and King",34391,Maryland,Jorgehaven
Sosa-Baker,18565,Massachusetts,Jensenburgh
Morris-Hensley,18784,Connecticut,Lake Jason
"Pittman, Lin and Martin",08269,Pennsylvania,Lake Darlene
Simon and Sons,32050,Kansas,Maldonadoland
Wheeler and Sons,86297,Nebraska,Lake Whitney
Mccarthy-Henderson,29068,Kansas,Mcmillantown
"Watson, Robertson and Drake",11785,Iowa,Rhodesview
"Robinson, Nichols and Walters",31358,Rhode Island,Port Nichole
"Patterson, Cooper and Watson",36235,New Mexico,North Jenniferchester
"Pacheco, Riley and Glover",28319,Kentucky,Nicholasview
"Solomon, Pearson and Davis",25133,Idaho,East Amyview
"Burgess, Bryant and Scott",06828,Michigan,Karenmouth
"Thomas, Jordan and Wise",70350,Washington,Brownfurt
"Stewart, Davis and Hawkins",76152,New Mexico,Williamsberg
Miller-Nichols,05454,Colorado,Smithmouth
"Landry, Gonzales and Barnett",56239,North Carolina,Meganborough
Pierce-Jones,58044,Missouri,Port Stevenside
"Hodges, Ali and Campbell",01117,Colorado,Rodriguezfurt
Oconnor-Parker,41848,Nevada,Lake Daniel
Bates-Gonzales,80426,New Jersey,Hesterview
Rodriguez-Whitaker,13465,Tennessee,Estradastad
Ramirez Inc,18387,Virginia,West Leonardmouth
Davis Group,73920,Utah,Moorefort
Ali-Meyer,19139,Georgia,Lake Annamouth
Lopez Group,53705,Utah,East Christopherstad
"Schmidt, Gay and Flynn",12204,California,Lake Rhondaland
Jacobson-Lowe,36871,West Virginia,Susanport
Mayer-Hines,39123,Colorado,New Darrellmouth
"Jones, Wu and Bennett",29901,South Dakota,Davidside
"Johnson, Perez and Mullins",60118,Arkansas,South Michelle
"Smith, Miles and Diaz",10169,Missouri,Larahaven
Evans Ltd,81779,Illinois,New Robert
"Buchanan, Williams and Randall",87737,Ohio,West Kevin
Smith-Jimenez,48599,Montana,Bradleyhaven
Smith LLC,98201,Alabama,Jenniferhaven
Flores-Russell,86957,Montana,Markberg
"Harris, Knapp and Cortez",60954,Idaho,Palmerhaven
Wilson Ltd,48561,Maine,Isaacville
Duran PLC,23238,South Carolina,West Laurahaven
Thompson-Diaz,12213,Maine,Seantown
"Adams, Smith and Shelton",30028,Massachusetts,South Codymouth
Jones-Hopkins,06663,Nebraska,West Catherineton
Bradshaw and Sons,41434,New York,Dennishaven
Meza and Sons,70036,Maine,Hillville
Mills Inc,26881,Maine,Whitneyside
Rogers-Anthony,60190,Montana,Flemingshire
Johnson Inc,89275,Connecticut,Cooperburgh
Farley-Lindsey,30353,Virginia,Lake Melindaview
"Williams, Estes and Torres",31364,New Hampshire,East Eugeneborough
Walker-Adams,27981,Alabama,South Carlastad
"Williams, Gibbs and Brown",47569,New Hampshire,North Danielport
"Castillo, Ali and Williams",22458,Kansas,Dianeton
Ray LLC,33059,South Dakota,Vaughnberg
Davis Group,19061,New Jersey,Mooneyfort
Foster-Vincent,03752,Tennessee,Lake Stacey
"Thornton, Davis and Conrad",46041,Mississippi,Port Timothychester
"Medina, Miller and Goodwin",59254,West Virginia,Glennside
Romero LLC,84445,Maryland,New Deborah
Erickson-Miller,04405,North Carolina,New Gordon
Williams PLC,15426,Nevada,Bethhaven
"Wood, Cunningham and Anderson",52961,Maryland,Port Thomas
Campbell-Boyle,28744,North Carolina,Johnsonview
"Rogers, Russo and Frazier",25479,Utah,Thompsonshire
Huynh LLC,79150,New York,East Thomas
Cameron Inc,80304,South Dakota,North Brittany
Gonzalez Ltd,62371,Indiana,Wagnermouth
Burton-Steele,87645,California,South Kathleenfort
"Barton, Stokes and Lynch",55364,Indiana,Woodview
"Parker, Romero and Shaffer",40188,Nevada,Nicholeside
"Fuller, Kim and Cole",35237,Ohio,East James
Simpson-Murphy,57029,Delaware,Lynnton
Osborne-Parker,47651,Maryland,Victoriafort
Sloan-Rogers,12631,Delaware,Moranhaven
Yang and Sons,73979,Hawaii,North Carlville
Lewis-Hodges,53629,Wisconsin,South Isabel
Welch-Aguirre,49446,Nebraska,New Joseph
Sosa-Hall,10084,Louisiana,West Nicole
Lopez-King,30583,Colorado,Port Donna
Hernandez-Benjamin,13747,Arkansas,West Patrickville
"Camacho, Galloway and Cooper",53278,Idaho,Andersonton
Sullivan Group,86182,Alabama,Mcleanbury
Novak LLC,51849,Hawaii,Mcculloughmouth
"Wilson, Ball and Frederick",34909,Florida,Jenniferborough
"Wallace, Lynch and Smith",63641,New Hampshire,Fullertown
Barker LLC,84452,North Dakota,West Emilyshire
Romero-Frederick,58871,New Hampshire,Stephanieberg
Newman and Sons,77168,Vermont,Wrightland
"Cabrera, Jones and Carter",52408,Missouri,South Daniellefort
Garcia-Vazquez,22608,Massachusetts,North Josephville
Ramirez Inc,56367,Virginia,Robertsfort
Grant PLC,47118,Tennessee,West Carrie
"Leonard, Wallace and Tyler",99076,Washington,Jermainefort
Roth and Sons,31323,Delaware,Campbelltown
Gomez LLC,45068,Texas,Amandaberg
"Lynch, Ryan and Stewart",46659,Minnesota,Daniellechester
Newton-Young,67707,Ohio,North Katherine
"Oliver, Hernandez and Wells",76953,North Carolina,Kimberlymouth
Johnson-Martin,66391,North Carolina,Rowlandburgh
Wood-Jones,14823,Ohio,Port Melvin
"Kent, Zimmerman and Hernandez",10377,Georgia,West Jeffreyfort
"Carrillo, Smith and Mason",43786,Tennessee,Wadeport
Schmidt-Merritt,12252,Arkansas,Bethtown
"Mayo, Vargas and Daniels",09705,South Dakota,Loweport
Arnold LLC,80349,North Carolina,East Kristy
Powell Group,65769,Missouri,Barberfort
"Stevens, Lopez and Moore",48535,Wyoming,South Michaeltown
Williams Ltd,10012,Idaho,Joshuaside
Davis PLC,10045,South Carolina,Jacksonfurt
Benson-Campbell,71630,Arkansas,Ibarraside
"Sosa, Kennedy and Williams",34465,Tennessee,Stevenfort
Cobb-Smith,66043,Texas,Lake Scott
Barnett Ltd,82565,Maine,Tracystad
Miller-Harvey,12893,Kentucky,South Daniel
"Carroll, Mack and Pennington",46891,Oregon,Birdmouth
"Stephenson, Yoder and Lowe",68129,Rhode Island,Tammyland
"Drake, Hammond and Williams",93554,Maine,Rollinsborough
Stevenson LLC,92545,Delaware,New Janicemouth
Fletcher-Allen,17202,Alaska,Smithstad
Tyler-Freeman,71106,Alabama,Jimenezport
Johnson Group,92173,Colorado,West Kelly
Gentry Group,04135,Hawaii,Peterstad
Nichols-Jimenez,67573,California,Lake Jonton
"Kennedy, Gilbert and Young",95831,Tennessee,North Leslie
"Kim, Jones and Daniels",41602,New York,South Elizabeth
"Hobbs, Mitchell and Hernandez",22593,Florida,Grayhaven
Morgan PLC,49617,Virginia,East Caseyfort
"Jordan, Collins and Hawkins",14556,Kentucky,East Chadbury
"Pearson, Mata and Young",55163,Connecticut,West Virginiamouth
Galvan and Sons,86903,Utah,Jeremyhaven
Freeman Group,41336,New Mexico,Port Dianaview
Jacobson-Rodriguez,25130,Indiana,Alexandrafort
"Holland, Baker and Fox",68148,Maryland,Kimberlyberg
Fernandez-Ford,47117,Tennessee,Port Pamfort
"Taylor, Mendez and Andrews",36058,Alaska,West Christian
"Ward, Campbell and Burnett",05280,North Carolina,Jaychester
"Perez, Leonard and Noble",23454,Hawaii,South Trevor
"Lewis, Bradshaw and Andrews",90764,Arkansas,Lindseyborough
Ibarra LLC,85299,Colorado,Parkshaven
Barrera and Sons,56153,Michigan,Port Briana
Shah-Baker,46528,Wisconsin,Lindsayport
Nelson-Garza,86677,Minnesota,West Lorishire
Munoz-Ryan,99026,Tennessee,Martinezville
Nunez Group,29927,Ohio,Lake Alexismouth
"Todd, Garcia and Daniels",02814,Georgia,Stevenfurt
"Barker, Hurst and Huffman",60292,South Carolina,Alexanderside
"Terrell, Dominguez and Crane",31995,Utah,Carlosshire
"Bolton, Vasquez and Smith",79187,Oregon,West Alishaland
Lee-Garcia,69110,Maine,Garyhaven
Hayes-Phillips,66563,Tennessee,East Rita
"Bowman, Gonzalez and Collier",55821,Wyoming,Christophermouth
Zavala-Oliver,55989,Georgia,Jacquelinemouth
"Taylor, Ortiz and Lynch",48097,Montana,Thompsonport
"Smith, Williams and Shields",11899,Vermont,Joshuachester
Conner and Sons,08526,Rhode Island,Rhondaton
Dominguez Group,42236,Oklahoma,East Amyshire
"Sanchez, Hammond and Webster",03896,Pennsylvania,Paulfurt
Nicholson-Johnson,87750,Montana,Munozport
Clarke-Rodriguez,97055,Hawaii,West Christinaborough
White-Rubio,54458,Florida,West Susanfurt
Walker-French,70800,Texas,Port Jessica
Carr-Noble,82550,Maine,South Tiffanyberg
Foster-Allen,65021,Colorado,Summerston
"Robinson, Mercado and Vaughn",56394,Delaware,Port Christina
"King, Turner and Hammond",06587,Wisconsin,Nicholasfurt
"Duffy, Flowers and Sherman",33636,Wisconsin,South Alexis
Avila Ltd,73320,Kentucky,South Samanthabury
Cooper Inc,80403,Nebraska,South Kennethville
Smith and Sons,94091,Hawaii,West Jessica
Scott and Sons,44414,Texas,Hamiltonberg
Dorsey-Campos,84087,Maine,Atkinsonstad
Brown-Mcgee,97460,New York,Holmesshire
"English, James and Willis",04591,South Dakota,West Prestonberg
"Wilson, Weaver and Bush",97934,Minnesota,Lake Deniseland
Johnson and Sons,21219,Pennsylvania,Johnberg
"Golden, Garcia and Lyons",08779,North Carolina,West Tiffany
Hill and Sons,20593,Kentucky,Whitakerstad
Morton Group,00702,Texas,Lake Josephville
Davis LLC,61426,Arkansas,Rachelfurt
"Walters, Lewis and Foley",84507,Wyoming,Georgechester
Thompson-Howell,16213,Florida,South Michael
"Schneider, Chapman and Prince",70359,Pennsylvania,Vincentburgh
Lopez Group,78281,Louisiana,Johnsonview
Bennett-Phelps,94304,Vermont,Port Jesusmouth
Baker and Sons,29053,Georgia,Robbinstown
Mercer-Orr,89004,Maine,Boyerside
"Powell, Lawrence and Espinoza",25982,Texas,West Cheryl
Berger-Lyons,50574,West Virginia,Robinmouth
Higgins-Miller,61591,Vermont,Port Justinburgh
Wood-Adkins,05645,New York,Albertshire
"Ross, Brown and Luna",27357,California,West Christina
Tucker-Lee,62150,Florida,Cochranshire
"Morales, Garza and Rice",57613,New Jersey,South Brendashire
Rocha Group,07087,Hawaii,West Christianmouth
"Gonzalez, Hart and Campbell",47784,Utah,Sullivantown
Morris-Figueroa,22900,Delaware,South Tiffany
Williams-Hawkins,68254,North Dakota,Olsenmouth
Duran-Stout,42638,Pennsylvania,East Kimberlyfort
Christensen LLC,18223,Wyoming,West Edward
"Roberson, Wells and Johnson",65940,Tennessee,South Audrey
Robinson PLC,65124,Nevada,Carterchester
Weeks-Brown,72309,Michigan,Odonnellport
Weber PLC,11332,Indiana,East Barry
"Jackson, Newton and Graham",38554,Idaho,Lake Jason
Sutton Inc,80688,Arkansas,South Andrew
Davis Group,95485,Tennessee,Juliestad
Tanner Inc,38904,California,New Ryanfort
Gomez-Costa,86373,West Virginia,Trevorville
"Castro, Lee and Gonzalez",87108,Michigan,Halechester
"Jordan, Oliver and Weaver",65141,Wisconsin,Port Laura
"Velez, Bradley and Martin",14145,New Jersey,Franklinton
"Reed, Walter and Kim",42299,Michigan,Rachelport
Flynn-Johnson,80624,Louisiana,Lake Jennifer
Charles-Stevens,11406,Texas,West Markton
"Duke, Allen and Turner",79314,Minnesota,Vegafurt
"Murray, Roberts and Wall",32180,Nevada,South Deborah
"Lee, Woods and Allen",38302,Minnesota,West Timothyfort
"Marsh, Harris and Sweeney",53433,Mississippi,Romeroton
"Crawford, Bradley and Jones",66635,Pennsylvania,Gallagherton
"Martinez, Yu and Trujillo",05487,Nebraska,Millerville
Stewart Group,82553,Hawaii,Douglasbury
Perez Ltd,20721,Nevada,North Paulmouth
Gates-Deleon,85770,Maryland,Lake Brandon
Barry-Finley,08318,North Carolina,Brownhaven
Greer-Jackson,33136,Tennessee,Kellyville
Nguyen PLC,49498,Massachusetts,North Karen
Olsen-Manning,37886,West Virginia,Sabrinaside
"Banks, Elliott and Gomez",48229,Florida,East Joseph
Cervantes-Lane,82878,Florida,Lake Stephen
Hanson-Myers,01855,Arizona,Zacharyland
"Navarro, Williams and Owens",91214,Maryland,Benitezmouth
Lambert-Evans,16300,Florida,West Hectorhaven
Gilbert-Hanson,74839,Massachusetts,Smallside
Villarreal-Taylor,66564,Wisconsin,West Madisonview
"Martinez, Sanchez and Blankenship",67485,North Carolina,Simpsonchester
"Hernandez, Morrison and Mullins",19067,Wisconsin,Kingtown
Stein Inc,43921,Colorado,Villegasburgh
"Willis, Cruz and Hancock",35229,Illinois,Mullinsmouth
"Phelps, Arnold and Gonzales",64909,Montana,Edwardchester
Barnett LLC,46856,Minnesota,South Feliciaberg
"Burton, Choi and Brooks",81702,Arkansas,Lake Betty
"Hatfield, Holland and Rose",38155,North Dakota,Simmonsbury
"Payne, Chapman and Kemp",93748,Arizona,North Savannahburgh
Parsons Group,94451,Florida,Lake Jerryport
Craig and Sons,62254,Arizona,New Adam
Hunt-Phillips,90277,Indiana,Kleinshire
"Knapp, Green and Velasquez",79779,Minnesota,Cartermouth
"Williams, Day and Cox",47654,Oregon,Davidfort
Day-Malone,40849,Massachusetts,Nelsonton
"Davis, Hunt and Walker",49613,Tennessee,Nelsonshire
Moreno and Sons,11524,Missouri,Lake Cesar
Young Inc,43482,New Hampshire,West Christopherchester
Kelley-Perez,08305,Oregon,Jeffreyton
Mccullough-Peterson,01248,Utah,West Stephen
Hughes PLC,85750,Massachusetts,Lynnfurt
Barnes-Ferrell,68573,Mississippi,East Kimberly
Parker-Gomez,13497,Indiana,Jeffersonborough
Li-Walker,82102,Tennessee,Cynthiafort
White Group,18536,Arkansas,Brockland
"Smith, Stanton and Gillespie",62312,Arizona,Barronberg
Acevedo LLC,86504,Hawaii,Harrisshire
Abbott LLC,28495,Alaska,Lake Michael
Lozano PLC,94322,New Jersey,North Lindsayton
"Fleming, May and Cameron",71506,Wisconsin,New Timothy
Parker-Forbes,06843,Missouri,Webstershire
Miller-Tate,67158,Nebraska,Zimmermanfurt
Taylor Inc,02422,Massachusetts,West Stephanieside
Ellis-Mcgee,06262,Maine,New Mindy
"Miller, Morgan and Briggs",07826,Missouri,East Carlatown
"Nichols, Perry and Dean",26776,Nebraska,Erictown
"Maldonado, Hunter and Miller",76058,Connecticut,West Jordan
Moreno and Sons,14933,Tennessee,Lake Adam
"Powers, Johnson and Wilson",56813,Alaska,South Ronald
Guerra-Miranda,61369,North Carolina,Davisfurt
Robertson-Washington,46707,Texas,New Theresa
Bailey-Johnson,96141,Mississippi,Elliottview
Flowers-Sanchez,96799,Vermont,South Laurie
"Diaz, Young and Yoder",18500,North Dakota,Kevinmouth
Andersen-Gregory,94648,Virginia,East Ericborough
"Simpson, Wood and Clark",09016,Minnesota,West Justin
"Walker, Jenkins and Miller",76336,North Carolina,East Henryview
"Berry, Burton and Diaz",16725,New York,West Lesliehaven
"Mcdowell, Estes and Anderson",22014,Kansas,Port Amyview
"Allen, Williams and Villa",51277,Connecticut,South Robert
"Robinson, Francis and Brewer",89383,Alaska,Ashleybury
Warren-Martinez,73151,South Carolina,Lake Samantha
"Newton, Hammond and Lin",81186,New Mexico,Maryland
"Lewis, Callahan and Summers",41160,Montana,Guerreroton
Caldwell-Robles,78949,New Hampshire,West Katie
Gregory-Washington,73870,Florida,New Suzanne
"Henry, Mendoza and Rowe",79565,Tennessee,Dixonland
Gonzales-Wilson,40728,Tennessee,South Amyport
Mata and Sons,49839,New Jersey,Mckenziemouth
Brown-Williams,24362,Mississippi,Lisaton
Ortiz LLC,59977,Oregon,Priceside
Nelson-Gomez,39686,Wisconsin,West Carlos
"Bennett, Rivera and Peterson",08167,North Carolina,West Ashley
Day Group,62618,Montana,Amberburgh
"May, Massey and Brooks",72196,Pennsylvania,Whitechester
Mcclure Ltd,47063,Virginia,Townsendland
"Davis, Johnson and Everett",51474,Pennsylvania,New Frankville
Richardson LLC,23466,Colorado,Lake Erica
"Webb, Jackson and Moore",48655,Kentucky,Lake Jesse
"Reed, Fernandez and Rodriguez",86777,North Dakota,Port Amber
Lucas-Higgins,77001,Oklahoma,Rosestad
Weaver-Webb,12012,Utah,South Christineberg
Gutierrez Group,97300,Montana,Brownton
Smith-Stephens,33713,Arizona,New Mariaport
"Thomas, Owen and Brown",80056,Arizona,Lake Charlesville
Brown-Douglas,92736,New Jersey,North Kiara
"Hamilton, Terrell and Bell",08816,Louisiana,Teresaside
"Gonzalez, Rogers and Griffith",28938,California,Gordonborough
Moore-Davis,89563,Connecticut,New Brianmouth
Howard Inc,97796,Wisconsin,Lake Kayla
"Morales, Haynes and Lee",23145,New Jersey,Davidsonborough
Mccarthy and Sons,79868,North Carolina,Port Brendaville
"Boyer, Ramirez and Brown",25763,West Virginia,Lake Christineshire
Taylor LLC,70780,New Mexico,West Leah
Schmidt-Butler,08191,Ohio,Jessicaberg
Barnes LLC,59373,New York,East Meredith
"James, Wilkinson and Thompson",21573,Minnesota,Ronaldville
"Campbell, Smith and David",15013,Vermont,East Kathy
"Morgan, Moore and Morgan",82918,South Carolina,Barberberg
Black-Bauer,60291,California,Port Courtney
"Thomas, Miller and Rodriguez",72350,Kansas,Nelsonmouth
Sanchez-Rhodes,28076,Alaska,Melissafort
Davis Group,29946,Louisiana,Garrisonfort
Johnson-Mcdaniel,10252,Georgia,Romeromouth
"Williamson, Patel and Durham",78932,Louisiana,Burnsburgh
"Thompson, Peterson and Daugherty",81108,New Hampshire,Gregorybury
Williams Ltd,75363,Tennessee,North Eric
Copeland-James,73079,Maine,East Micheletown
Cummings and Sons,10813,Rhode Island,Richardton
Frost Group,02893,Hawaii,East Jennifermouth
"Griffith, Stevens and Hill",42008,North Carolina,New Victoria
"Oneal, Holder and Brown",50845,Iowa,Aaronside
Crosby-Wright,71910,Wyoming,Vanessaport
Cruz Group,41456,Rhode Island,Bradshawfort
Evans Ltd,36986,Hawaii,Woodsborough
Franklin PLC,67654,North Dakota,North Williamfort
Patton-Bush,33191,Montana,Taylorborough
Jordan-Barber,77407,Nevada,North Erinport
Lutz and Sons,93514,Georgia,Ryanburgh
"Benson, Montoya and Kim",84551,Pennsylvania,Steeleville
"Kim, Wells and Goodman",21291,Arizona,Port Rebeccaview
Phelps-Roth,27399,West Virginia,New Wendy
Anderson and Sons,50052,Missouri,Ashleyborough
"Sampson, Johnson and Thomas",78795,Colorado,Montgomerychester
Miller PLC,69546,Arkansas,Burgessview
Hall PLC,81565,New Jersey,Evansmouth
Ross-Thompson,62017,South Dakota,South Samuelchester
"Smith, Anderson and Benjamin",24495,Montana,Amandaburgh
Ross Group,16918,Mississippi,South Sean
"Kaufman, Williams and Moreno",50354,Kansas,Davidmouth
Johnson-Phillips,29832,South Carolina,New Kathryn
Brown Group,81147,New Mexico,South Lisa
Bryan-Mitchell,12534,Hawaii,Jessicaburgh
Lewis Group,60830,New Mexico,Brendahaven
"Williams, Davis and Nguyen",41823,North Carolina,North Kellyville
Morrison-Smith,91336,Massachusetts,Carlaborough
"Davidson, Griffin and Randolph",88546,Iowa,Aguilarmouth
Nelson-Rice,76727,Arkansas,Brownberg
Baker-Lewis,87057,Montana,New Michaelberg
"Craig, Lara and House",24108,Vermont,Rebeccatown
"Morales, Smith and Thomas",43372,Vermont,West Brianbury
"Liu, Santos and Gamble",72618,Alaska,Lunatown
Joyce and Sons,95150,North Carolina,Port Patrick
"Horn, Lee and Harrington",44911,Hawaii,Rayside
Diaz Ltd,25416,Alaska,West Williamfort
Franklin LLC,18808,Rhode Island,Lake Bryan
Herrera PLC,98255,South Carolina,Audreyborough
"Riley, Mccoy and Williams",38602,Arkansas,New Chelseashire
Wilson and Sons,71173,Indiana,Lambhaven
White-Villa,96747,Alaska,New Jose
Parker LLC,03151,Iowa,Higginschester
"Roberts, Walsh and Serrano",29148,Nebraska,Jenniferside
Harrell-Smith,73447,Montana,North Patrickfort
"Ortiz, Moore and Sullivan",24472,Maine,South Richard
"Richard, Bruce and Montgomery",32397,Massachusetts,North Denise
"Pierce, Robinson and Carter",53378,Ohio,West Aprilview
"Perez, Travis and Lowe",03102,Maryland,Andreaborough
Jones LLC,60836,Missouri,East Juliachester
Henderson-Anthony,03569,Kansas,Natalieside
Hurley-Evans,52844,Nevada,Port Stephanie
"Martin, Stanley and Sanford",34422,Alaska,Kimberg
Reeves-Chen,95152,Hawaii,Ericstad
Thompson-Alvarado,64228,Virginia,New Scottberg
"Owen, Mckenzie and Parks",81582,Wisconsin,Jonathanville
Bates and Sons,46113,Hawaii,Port Savannahville
Johnson-Reed,85806,Utah,Murraychester
Sawyer-Hunt,82857,Virginia,Gordonville
Miller PLC,45104,Virginia,Lake Vincent
Myers-Buchanan,24657,Massachusetts,Fletchermouth
"Lane, Garner and Martin",33305,Indiana,East Scott
Bishop-Melendez,13176,Maine,Allisonborough
