counterparty_id,name,city,state,zip,country
1,Young-Thompson,Lake Tiffanyshire,Maryland,25733,USA
2,Kelley-Murphy,North Briana,Nebraska,66079,USA
3,Rush-Hunter,North Kimberlyborough,Kentucky,67538,USA
4,Montgomery-Mason,Kathrynbury,South Dakota,4529,USA
5,Parker-Cooper,Dianemouth,Louisiana,49691,USA
6,Lopez Group,Port Christopher,Hawaii,4402,USA
7,Adkins Inc,East Elizabethfort,Utah,21316,USA
8,"Williams, Clarke and Martin",West Heatherchester,Florida,54504,USA
9,Freeman-Smith,West Erikamouth,Connecticut,86495,USA
10,"Miller, Gomez and Hardy",South Michael,Alabama,76402,USA
11,"Eaton, Shah and Dixon",New Jamesside,Rhode Island,4064,USA
12,Wilson-Holt,Jillianland,Pennsylvania,29120,USA
13,"Parrish, Long and Mills",New Melaniebury,Arkansas,1808,USA
14,Bradford Group,Mckinneyfort,Minnesota,35873,USA
15,Hayes-Montes,Phelpsview,New York,76246,USA
16,Wood-Hale,South Michaelfurt,Nebraska,58032,USA
17,Bartlett-Lowe,North Heatherton,Massachusetts,48440,USA
18,"Ortega, Barker and Kelly",South Brian,North Dakota,18305,USA
19,"Hunt, Wall and Johnson",Darrenstad,Maine,89809,USA
20,Hanna-Johnson,Holdershire,Rhode Island,65696,USA
21,Johnson-Fisher,North James,Texas,95108,USA
22,Davis-Carrillo,West Brandon,Arizona,66897,USA
23,Roberts Group,North Amy,Michigan,60868,USA
24,Clarke-Mack,Nicholsfurt,New York,75696,USA
25,Bowman-Anderson,Lake Emilystad,New York,17156,USA
26,"Schmidt, Robinson and Johnson",West Brandonmouth,Colorado,48575,USA
27,"Ortiz, Chang and Greene",Brandonshire,Hawaii,15688,USA
28,"Ramirez, Frey and Petersen",New Kevinhaven,Vermont,32276,USA
29,Burke LLC,Carlaton,Utah,79359,USA
30,"Alvarez, Walter and Robinson",Piercemouth,Minnesota,49358,USA
31,Martinez-Baker,Gainesburgh,Oklahoma,95107,USA
32,Miller Group,Wongchester,Tennessee,67041,USA
33,Johnson-Terry,Port Alyssafurt,Indiana,94360,USA
34,"Morales, Davis and Smith",Catherinemouth,Missouri,30162,USA
35,Sellers Inc,Whitechester,Florida,20374,USA
36,"Stewart, Price and Bray",Gouldton,Idaho,35843,USA
37,"Barton, Larson and Howard",Lake Sharonville,Massachusetts,12210,USA
38,Smith-Mills,East James,South Carolina,75979,USA
39,Leach-Kelly,Port Nicholaston,Nebraska,73629,USA
40,Rivera Ltd,Olsonport,Texas,91222,USA
41,Parker LLC,Nelsonton,New Jersey,48069,USA
42,Quinn Group,Lake Jamesmouth,Alabama,8441,USA
43,"Dunlap, Medina and Young",Castroville,Delaware,53907,USA
44,Jacobs-Ayala,Masonmouth,Georgia,5269,USA
45,"Phillips, Gibson and Thompson",New Emilychester,Arkansas,49305,USA
46,Thompson-Henderson,Edwardsland,Colorado,49540,USA
47,"Knight, Pearson and Sanders",New Briannafort,Arkansas,35348,USA
48,Mendoza Ltd,Valeriestad,Ohio,89675,USA
49,Martin Inc,West Johnburgh,New Mexico,39024,USA
50,"Davis, Vasquez and Mejia",Charleschester,Iowa,15309,USA
51,Miller LLC,East Jonathanbury,Rhode Island,3665,USA
52,"Mcdonald, Peck and Mejia",Kirkmouth,North Carolina,6942,USA
53,Wright-Welch,Lindsayland,Kentucky,17021,USA
54,Horton LLC,Davidside,Wyoming,45004,USA
55,Weiss PLC,Stacymouth,Vermont,46483,USA
56,Kent-Young,North Jackchester,Ohio,82365,USA
57,Robinson-Moyer,Moraleston,Utah,63131,USA
58,Barnett LLC,Velasquezview,South Dakota,69299,USA
59,Erickson Group,East Danny,Washington,3266,USA
60,"Parrish, Payne and Morgan",East Daniel,Vermont,28375,USA
61,Conley PLC,Derekport,Oklahoma,81650,USA
62,Buchanan Inc,Bryanburgh,Texas,97984,USA
63,Thompson and Sons,Jonesberg,Alabama,98146,USA
64,Fleming-Jones,South Mary,Massachusetts,671,USA
65,"Brown, Martinez and Barnes",Jillview,New Jersey,48767,USA
66,"Flores, Perkins and Hernandez",New Michelleton,Illinois,45672,USA
67,Payne PLC,Santiagotown,Idaho,22495,USA
68,Berry-Weaver,Smithfort,Kansas,41722,USA
69,Robinson Ltd,West Curtis,Hawaii,30170,USA
70,"Morgan, Velez and Hayes",Russellfort,Oklahoma,88978,USA
71,Larson-Salinas,Butlerchester,West Virginia,87861,USA
72,Clark-Reese,Port Alexander,West Virginia,65931,USA
73,Burnett LLC,Garrettburgh,Vermont,49867,USA
74,"Lopez, Salinas and Richardson",Wilsonstad,North Carolina,70292,USA
75,Coffey LLC,Wongburgh,Ohio,86571,USA
76,Strickland-Roberts,Port Jenniferville,New Hampshire,4160,USA
77,"Larson, Reid and Anderson",Williamsshire,South Carolina,72135,USA
78,"Carson, Morgan and Osborne",Hartbury,Georgia,19685,USA
79,Olsen-Gomez,West Anthonyfurt,Texas,15927,USA
80,Bennett-Rodriguez,Leeborough,Delaware,51087,USA
81,Ramirez and Sons,Lake Shawn,Delaware,14911,USA
82,"Olson, Stanley and Horton",North Cynthia,Washington,24930,USA
83,Allison Inc,Brownchester,Louisiana,30905,USA
84,Carpenter LLC,Victoriachester,Wisconsin,25406,USA
85,Lewis Inc,New Patrickville,Tennessee,55816,USA
86,Taylor PLC,Brandtborough,Arizona,66316,USA
87,Henry LLC,North Melindaland,Alaska,46222,USA
88,Williams-Baxter,Hollyshire,North Dakota,23623,USA
89,Hunter Group,Emilyland,Rhode Island,70708,USA
90,"Carson, Hampton and Daniels",Bowmanport,Georgia,41252,USA
91,Kelly PLC,North Jasonhaven,Louisiana,99436,USA
92,Holt and Sons,South Patrickmouth,Colorado,91001,USA
93,"Clark, Howell and Wiggins",East Calvin,Hawaii,62757,USA
94,Robinson and Sons,Pooleland,South Carolina,21246,USA
95,Richardson-Duarte,Spencerstad,South Dakota,40854,USA
96,"Garcia, Guerrero and Weiss",Wilsonmouth,Illinois,18844,USA
97,"Gomez, Gray and Morgan",West Jennifer,Mississippi,92183,USA
98,"Santiago, Holmes and Johnson",Mccarthychester,Louisiana,2806,USA
99,Manning Inc,South Jeffrey,Tennessee,44885,USA
100,Goodwin-Rivera,Knightland,Vermont,97503,USA
101,Reynolds-Moyer,Gregoryfurt,Oklahoma,42902,USA
102,Cruz-Green,North Carl,Tennessee,68114,USA
103,Johnson-Mccoy,North Brandonshire,Maryland,91917,USA
104,"Curtis, Moss and Yang",Scottmouth,Montana,61386,USA
105,Ray Ltd,South Anthonytown,Minnesota,73826,USA
106,Davis-Hopkins,Port Robert,Hawaii,99648,USA
107,"Hall, Rodriguez and Kirby",South Jessica,North Carolina,71003,USA
108,Evans-Alvarez,Hudsonburgh,Delaware,51205,USA
109,Hahn-Anderson,Kellyton,Kentucky,7792,USA
110,"Wells, Walker and Murray",New Jenniferview,New Hampshire,70848,USA
111,"Mullen, Nelson and Smith",East Amychester,Wyoming,52729,USA
112,Acosta-Herman,Kirstenville,New Mexico,15564,USA
113,Glover-Gray,Villanuevashire,Nevada,20395,USA
114,Alvarez LLC,Lynnborough,Louisiana,87531,USA
115,Williamson-Marks,Paulchester,Louisiana,21224,USA
116,Taylor-Hunter,West Thomasberg,Missouri,38018,USA
117,Ewing Inc,South Lisa,Delaware,27920,USA
118,"Garcia, Shields and Nunez",Lake Brett,Delaware,32898,USA
119,"Graves, Moore and Conway",Boydhaven,Vermont,26276,USA
120,Decker and Sons,West Daniel,Virginia,5348,USA
121,"Jones, Walker and Richardson",East Alfredburgh,North Carolina,59107,USA
122,"Rodriguez, Le and Espinoza",Debbietown,Missouri,27560,USA
123,Jones Ltd,Port Joshua,Pennsylvania,81426,USA
124,"Campbell, Holt and Miller",Jeffreyton,West Virginia,36001,USA
125,"Brown, Ward and Gomez",Lake Paul,Kansas,79079,USA
126,"Hernandez, Scott and Diaz",Port John,Arizona,79558,USA
127,Herring-Franklin,West Jacobfort,Colorado,64564,USA
128,"Mcdonald, Gomez and Miller",Thompsonfurt,Connecticut,90829,USA
129,Campbell Ltd,Mejiaville,Pennsylvania,11717,USA
130,"Adams, Davis and Maddox",Nguyenton,Vermont,56841,USA
131,Little-Mckay,Tanyaville,Michigan,24873,USA
132,Callahan PLC,Crystaltown,Missouri,51308,USA
133,"Hernandez, Butler and Castillo",Pageburgh,Ohio,27301,USA
134,"Ortega, James and Hamilton",Reyeshaven,Massachusetts,92901,USA
135,Jones LLC,Taylorshire,New Mexico,92754,USA
136,"Johnson, Allen and Barber",Port Jamesport,Ohio,16424,USA
137,Mathis-Duran,Port Emily,Louisiana,33880,USA
138,Young-Huerta,Mitchellburgh,Minnesota,5716,USA
139,King Ltd,Theresatown,West Virginia,61107,USA
140,"Harmon, Oneill and Smith",South Jeffrey,Idaho,75748,USA
141,"Mendoza, Brown and Smith",Paulaview,Wisconsin,7568,USA
142,Ho LLC,East Kristin,Indiana,20072,USA
143,Hopkins and Sons,Thompsonbury,Nebraska,37722,USA
144,"Collier, Phillips and Williams",Smithshire,South Dakota,97982,USA
145,Lopez-Ramirez,New Nathanchester,Hawaii,94976,USA
146,"Steele, Smith and Hammond",Dianeborough,Louisiana,27569,USA
147,Benjamin-Quinn,Stanleyburgh,Ohio,19002,USA
148,Webb Inc,North Hannahtown,Nebraska,28880,USA
149,"Johnson, Anderson and Reyes",Leeburgh,Minnesota,41942,USA
150,Thomas-Miller,New Sean,Vermont,94013,USA
151,Golden Ltd,Paulmouth,Texas,61207,USA
152,"Gray, Davis and Ellis",South David,Maine,84762,USA
153,Reed and Sons,Rebeccamouth,Oklahoma,54418,USA
154,Martin and Sons,Chrisshire,New York,63926,USA
155,Bowen PLC,East Annetteshire,Hawaii,99686,USA
156,Thomas-Fischer,Kimberlyborough,Alabama,20777,USA
157,"Clayton, Patterson and Rodriguez",Millermouth,Pennsylvania,8469,USA
158,Weeks Group,Lake Kristenland,Vermont,22758,USA
159,Peterson-Gomez,South Maurice,Oregon,13909,USA
160,Porter Group,Kellymouth,Tennessee,19076,USA
161,"Shah, Sanders and Rodriguez",Stephaniebury,Minnesota,31219,USA
162,"Hernandez, Morris and Bell",West Justinborough,Illinois,44843,USA
163,"Jenkins, Marshall and Flores",Johnsonchester,Missouri,65939,USA
164,Jones Inc,Melissamouth,Tennessee,67786,USA
165,Valdez Ltd,Rodriguezberg,South Dakota,73645,USA
166,Bell Group,New Jamesburgh,Virginia,22610,USA
167,Gamble LLC,South Michaelville,Illinois,79268,USA
168,Villarreal Ltd,North Anthony,Illinois,81949,USA
169,"Wright, Green and Gonzalez",Dianaberg,Texas,50496,USA
170,"Reynolds, Anderson and Lee",Fosterstad,Georgia,68793,USA
171,"Blackwell, Burgess and Petersen",Flowersfurt,Nebraska,9933,USA
172,Martinez and Sons,Leonardmouth,Massachusetts,89904,USA
173,Glover and Sons,Jennifershire,Nevada,61519,USA
174,"Carrillo, Ward and Morgan",Andersonfort,Vermont,83689,USA
175,Reyes-Young,Mcdonaldtown,Louisiana,7004,USA
176,"Perez, Woodard and Perez",Lake Christopherberg,Maine,63920,USA
177,Martinez-Williams,South Miguelmouth,Hawaii,73615,USA
178,Randolph PLC,Jeffreyview,Illinois,14698,USA
179,Terrell Inc,South Matthew,Maryland,4611,USA
180,Short PLC,Mileshaven,Kansas,68390,USA
181,Henderson-Flores,East Austinside,Wisconsin,72208,USA
182,"Koch, Johnson and Liu",West Heidi,Illinois,20527,USA
183,"Finley, Thompson and Powell",East Denisemouth,Kentucky,35016,USA
184,Roberts Ltd,Wilsonshire,South Dakota,10568,USA
185,"Cooper, Rogers and Ball",Jacksonburgh,Missouri,94714,USA
186,"Williams, Lopez and White",Warnerfurt,Wyoming,29846,USA
187,"Bennett, Mccarty and Phillips",Orrborough,Wisconsin,62985,USA
188,Lawson-Robinson,Ruizshire,North Carolina,37702,USA
189,Flores Inc,New Madison,Arkansas,21174,USA
190,Lewis-Mcclure,Austinbury,Kentucky,57749,USA
191,Gonzalez-Richardson,North Angela,Nevada,49991,USA
192,"Thompson, Cooper and King",Debramouth,Vermont,92471,USA
193,"Ryan, Smith and Bowman",South Monicashire,Delaware,83324,USA
194,Johnson-Winters,Barryton,New Mexico,37883,USA
195,"Norris, Ward and Wyatt",New Ryan,Rhode Island,87879,USA
196,"Alvarado, Perkins and Willis",Natalieport,North Carolina,69948,USA
197,"Crawford, Hahn and Bauer",North Chrischester,Alaska,69562,USA
198,"Byrd, Kim and Carr",North Derricktown,Virginia,78698,USA
199,Meyer-Sharp,Lake Sharonshire,North Dakota,34502,USA
200,Barnes LLC,Susanfort,Alabama,2908,USA
201,Wilkerson PLC,Craigfort,New Mexico,13574,USA
202,Key Group,South Lisachester,Oregon,82720,USA
203,"Moore, Scott and Willis",Jessicaland,Wyoming,66945,USA
204,Lewis Inc,Tatemouth,North Carolina,55810,USA
205,Harris-Fields,Stricklandfurt,Rhode Island,57744,USA
206,"Sullivan, Vazquez and Morrison",Port Wendy,Michigan,41520,USA
207,Harris-Jones,Kristinastad,Washington,77885,USA
208,Wagner-Santana,Wendyhaven,Arizona,72038,USA
209,"Lee, Rivera and Gonzalez",East Sara,Tennessee,69134,USA
210,Jackson-Green,Cynthiaside,Delaware,70946,USA
211,Atkins LLC,Lake Ruthburgh,North Carolina,30588,USA
212,"Hahn, Foster and Leblanc",Lisabury,Illinois,74958,USA
213,Downs-Green,Jillmouth,Pennsylvania,58712,USA
214,"Sheppard, Lowery and Martinez",Louisside,Maryland,55417,USA
215,Sanders-Evans,East Amberbury,Missouri,86681,USA
216,Bailey-Benson,Mirandafurt,Delaware,93234,USA
217,Jones-Jordan,Haroldview,Wyoming,40571,USA
218,"Lopez, Murray and Thomas",Port Jessica,Oregon,2252,USA
219,Morgan-Buckley,North Justin,New Jersey,37723,USA
220,Mccarthy-Burnett,East Lindatown,Oregon,50738,USA
221,"Melton, Rivera and Gomez",New Edwardport,Connecticut,98384,USA
222,"Olson, Fischer and Francis",Laurenmouth,Oregon,15091,USA
223,Brown PLC,Paulachester,Alabama,97409,USA
224,Cruz and Sons,South Ethan,Arkansas,36501,USA
225,Oliver-Mckinney,Johntown,Maine,43346,USA
226,Ferguson-Christian,Christopherberg,Pennsylvania,64251,USA
227,Stevenson LLC,Paulberg,Mississippi,35201,USA
228,"Moore, Thomas and Bradley",Jennifermouth,Georgia,27476,USA
229,Johnson Group,North Frankview,New Mexico,87331,USA
230,Hernandez and Sons,Williamsland,Wyoming,60631,USA
231,"Brown, Miller and Brown",Edwardborough,Mississippi,50808,USA
232,Douglas-White,South Kennethland,New Hampshire,8285,USA
233,Zimmerman PLC,Diazfurt,Vermont,64299,USA
234,Tate Inc,Jamesbury,New Hampshire,40685,USA
235,Mccullough Group,Cherylstad,Idaho,22246,USA
236,Malone Group,Michaelmouth,Georgia,17220,USA
237,Maynard Ltd,Jasonfort,Pennsylvania,36308,USA
238,Kelley-Perkins,Solisshire,New Jersey,45345,USA
239,Lloyd-Jones,Wintersburgh,Oklahoma,46123,USA
240,Smith Inc,Port Karenland,Hawaii,76983,USA
241,"Hall, Gregory and Oliver",Taylorbury,Colorado,48332,USA
242,Alvarez-Tucker,Kimhaven,New Jersey,50001,USA
243,Francis-Clark,South Kelseymouth,Minnesota,91101,USA
244,"Garcia, Frazier and Andrews",West Adam,California,91256,USA
245,"Mckinney, Richards and Gallagher",Hawkinsshire,New York,16532,USA
246,Martinez LLC,Debrahaven,Kentucky,51538,USA
247,Watts-Jones,Julietown,Nebraska,16522,USA
248,Cox-Maldonado,Reedview,Minnesota,50209,USA
249,Anderson-Dixon,Duffyborough,Indiana,26689,USA
250,Kelly Ltd,North Emily,Ohio,21712,USA
251,Williams Inc,Lake Josephstad,Illinois,83461,USA
252,"Meyers, Delgado and Richardson",Beltranview,Oregon,31035,USA
253,Myers and Sons,Cheyennestad,Florida,71517,USA
254,Dixon-Lester,Maryside,Minnesota,93567,USA
255,Wong and Sons,Mccarthyport,Missouri,42021,USA
256,Young PLC,Brianborough,Rhode Island,3095,USA
257,Butler LLC,Andersonview,California,41326,USA
258,Robbins Inc,Willisfurt,Arkansas,29907,USA
259,Sanders-Thompson,Lake Jill,Wyoming,46244,USA
260,Morris Inc,Mooremouth,Virginia,87029,USA
261,Reid LLC,Lake Matthewmouth,Ohio,96973,USA
262,Guerra-Jenkins,Markberg,Washington,6688,USA
263,Herrera LLC,Port Thomas,Florida,12939,USA
264,Cook LLC,Allenburgh,Maine,30851,USA
265,Douglas Inc,North Ericaside,Michigan,57698,USA
266,Bates Inc,Nelsonchester,Nevada,39247,USA
267,Mccoy-Jefferson,North Christine,Texas,56022,USA
268,"Hughes, Watson and Montes",North Kimborough,Wisconsin,33911,USA
269,"Abbott, Shaffer and Lopez",Loganmouth,Delaware,68492,USA
270,Casey Inc,Aliciashire,Oregon,30394,USA
271,Mcdonald LLC,East David,Wisconsin,14017,USA
272,Smith Ltd,North John,South Dakota,71213,USA
273,"Gonzalez, Douglas and Robles",Emilybury,Missouri,80119,USA
274,Evans Inc,Sarahside,Texas,87447,USA
275,Sanchez-Young,Stephaniemouth,Nebraska,74198,USA
276,Acosta-Scott,West Kathyland,Alaska,5534,USA
277,Brown PLC,West Ryan,Wyoming,12280,USA
278,Burton Ltd,Lake Edwin,New Mexico,65100,USA
279,Baker-Ray,Marquezstad,Wyoming,84560,USA
280,"Rodriguez, Merritt and Miller",Chapmanville,Nevada,96872,USA
281,Boone-Levine,Elizabethview,South Dakota,84054,USA
282,"Ortega, Marshall and Clark",Carrilloland,Hawaii,53225,USA
283,"Gonzales, Davis and Mcfarland",West Julie,New York,78285,USA
284,Warner-Hill,South Brandon,California,19999,USA
285,Perkins LLC,South Sheilachester,Utah,21858,USA
286,Spence-Owens,Gouldchester,Arizona,57618,USA
287,Shields Inc,South Patrick,Mississippi,83838,USA
288,Miller-Hernandez,South Amberville,North Carolina,13558,USA
289,"Rogers, Johnson and Osborne",Port Julia,Idaho,33604,USA
290,Hughes Ltd,Christineborough,New Jersey,34197,USA
291,"Murphy, Garner and Jimenez",Amyland,Georgia,37810,USA
292,Lopez-Green,Brianashire,Montana,34570,USA
293,Long-Ellis,Webertown,North Carolina,83116,USA
294,Bridges-Howard,New Bonnie,Connecticut,52574,USA
295,"Collins, Martinez and Duffy",Ellisside,Delaware,37541,USA
296,Brown-Jones,South Kellytown,Texas,51233,USA
297,"Howell, Stevens and Jones",North Michaelborough,Alaska,57074,USA
298,"Miller, Griffin and Nelson",North Elizabethside,Rhode Island,84790,USA
299,"Miles, Lawson and Shelton",Kristinahaven,Wisconsin,32273,USA
300,"King, Bray and Rice",Lake Jordanfurt,Vermont,55430,USA
301,"Oconnor, Johnson and Gordon",Ricardohaven,Alabama,57041,USA
302,"Lewis, Allen and Mann",Ericview,Pennsylvania,21940,USA
303,"Brown, Guzman and Stevens",Port Jennaview,Delaware,72447,USA
304,"Banks, Torres and Jackson",South Dennishaven,Washington,76008,USA
305,Miller-Cline,Port Davidfurt,Louisiana,75985,USA
306,"Smith, Andrews and King",Jorgehaven,Maryland,34391,USA
307,Sosa-Baker,Jensenburgh,Massachusetts,18565,USA
308,Morris-Hensley,Lake Jason,Connecticut,18784,USA
309,"Pittman, Lin and Martin",Lake Darlene,Pennsylvania,8269,USA
310,Simon and Sons,Maldonadoland,Kansas,32050,USA
311,Wheeler and Sons,Lake Whitney,Nebraska,86297,USA
312,Mccarthy-Henderson,Mcmillantown,Kansas,29068,USA
313,"Watson, Robertson and Drake",Rhodesview,Iowa,11785,USA
314,"Robinson, Nichols and Walters",Port Nichole,Rhode Island,31358,USA
315,"Patterson, Cooper and Watson",North Jenniferchester,New Mexico,36235,USA
316,"Pacheco, Riley and Glover",Nicholasview,Kentucky,28319,USA
317,"Solomon, Pearson and Davis",East Amyview,Idaho,25133,USA
318,"Burgess, Bryant and Scott",Karenmouth,Michigan,6828,USA
319,"Thomas, Jordan and Wise",Brownfurt,Washington,70350,USA
320,"Stewart, Davis and Hawkins",Williamsberg,New Mexico,76152,USA
321,Miller-Nichols,Smithmouth,Colorado,5454,USA
322,"Landry, Gonzales and Barnett",Meganborough,North Carolina,56239,USA
323,Pierce-Jones,Port Stevenside,Missouri,58044,USA
324,"Hodges, Ali and Campbell",Rodriguezfurt,Colorado,1117,USA
325,Oconnor-Parker,Lake Daniel,Nevada,41848,USA
326,Bates-Gonzales,Hesterview,New Jersey,80426,USA
327,Rodriguez-Whitaker,Estradastad,Tennessee,13465,USA
328,Ramirez Inc,West Leonardmouth,Virginia,18387,USA
329,Davis Group,Moorefort,Utah,73920,USA
330,Ali-Meyer,Lake Annamouth,Georgia,19139,USA
331,Lopez Group,East Christopherstad,Utah,53705,USA
332,"Schmidt, Gay and Flynn",Lake Rhondaland,California,12204,USA
333,Jacobson-Lowe,Susanport,West Virginia,36871,USA
334,Mayer-Hines,New Darrellmouth,Colorado,39123,USA
335,"Jones, Wu and Bennett",Davidside,South Dakota,29901,USA
336,"Johnson, Perez and Mullins",South Michelle,Arkansas,60118,USA
337,"Smith, Miles and Diaz",Larahaven,Missouri,10169,USA
338,Evans Ltd,New Robert,Illinois,81779,USA
339,"Buchanan, Williams and Randall",West Kevin,Ohio,87737,USA
340,Smith-Jimenez,Bradleyhaven,Montana,48599,USA
341,Smith LLC,Jenniferhaven,Alabama,98201,USA
342,Flores-Russell,Markberg,Montana,86957,USA
343,"Harris, Knapp and Cortez",Palmerhaven,Idaho,60954,USA
344,Wilson Ltd,Isaacville,Maine,48561,USA
345,Duran PLC,West Laurahaven,South Carolina,23238,USA
346,Thompson-Diaz,Seantown,Maine,12213,USA
347,"Adams, Smith and Shelton",South Codymouth,Massachusetts,30028,USA
348,Jones-Hopkins,West Catherineton,Nebraska,6663,USA
349,Bradshaw and Sons,Dennishaven,New York,41434,USA
350,Meza and Sons,Hillville,Maine,70036,USA
351,Mills Inc,Whitneyside,Maine,26881,USA
352,Rogers-Anthony,Flemingshire,Montana,60190,USA
353,Johnson Inc,Cooperburgh,Connecticut,89275,USA
354,Farley-Lindsey,Lake Melindaview,Virginia,30353,USA
355,"Williams, Estes and Torres",East Eugeneborough,New Hampshire,31364,USA
356,Walker-Adams,South Carlastad,Alabama,27981,USA
357,"Williams, Gibbs and Brown",North Danielport,New Hampshire,47569,USA
358,"Castillo, Ali and Williams",Dianeton,Kansas,22458,USA
359,Ray LLC,Vaughnberg,South Dakota,33059,USA
360,Davis Group,Mooneyfort,New Jersey,19061,USA
361,Foster-Vincent,Lake Stacey,Tennessee,3752,USA
362,"Thornton, Davis and Conrad",Port Timothychester,Mississippi,46041,USA
363,"Medina, Miller and Goodwin",Glennside,West Virginia,59254,USA
364,Romero LLC,New Deborah,Maryland,84445,USA
365,Erickson-Miller,New Gordon,North Carolina,4405,USA
366,Williams PLC,Bethhaven,Nevada,15426,USA
367,"Wood, Cunningham and Anderson",Port Thomas,Maryland,52961,USA
368,Campbell-Boyle,Johnsonview,North Carolina,28744,USA
369,"Rogers, Russo and Frazier",Thompsonshire,Utah,25479,USA
370,Huynh LLC,East Thomas,New York,79150,USA
371,Cameron Inc,North Brittany,South Dakota,80304,USA
372,Gonzalez Ltd,Wagnermouth,Indiana,62371,USA
373,Burton-Steele,South Kathleenfort,California,87645,USA
374,"Barton, Stokes and Lynch",Woodview,Indiana,55364,USA
375,"Parker, Romero and Shaffer",Nicholeside,Nevada,40188,USA
376,"Fuller, Kim and Cole",East James,Ohio,35237,USA
377,Simpson-Murphy,Lynnton,Delaware,57029,USA
378,Osborne-Parker,Victoriafort,Maryland,47651,USA
379,Sloan-Rogers,Moranhaven,Delaware,12631,USA
380,Yang and Sons,North Carlville,Hawaii,73979,USA
381,Lewis-Hodges,South Isabel,Wisconsin,53629,USA
382,Welch-Aguirre,New Joseph,Nebraska,49446,USA
383,Sosa-Hall,West Nicole,Louisiana,10084,USA
384,Lopez-King,Port Donna,Colorado,30583,USA
385,Hernandez-Benjamin,West Patrickville,Arkansas,13747,USA
386,"Camacho, Galloway and Cooper",Andersonton,Idaho,53278,USA
387,Sullivan Group,Mcleanbury,Alabama,86182,USA
388,Novak LLC,Mcculloughmouth,Hawaii,51849,USA
389,"Wilson, Ball and Frederick",Jenniferborough,Florida,34909,USA
390,"Wallace, Lynch and Smith",Fullertown,New Hampshire,63641,USA
391,Barker LLC,West Emilyshire,North Dakota,84452,USA
392,Romero-Frederick,Stephanieberg,New Hampshire,58871,USA
393,Newman and Sons,Wrightland,Vermont,77168,USA
394,"Cabrera, Jones and Carter",South Daniellefort,Missouri,52408,USA
395,Garcia-Vazquez,North Josephville,Massachusetts,22608,USA
396,Ramirez Inc,Robertsfort,Virginia,56367,USA
397,Grant PLC,West Carrie,Tennessee,47118,USA
398,"Leonard, Wallace and Tyler",Jermainefort,Washington,99076,USA
399,Roth and Sons,Campbelltown,Delaware,31323,USA
400,Gomez LLC,Amandaberg,Texas,45068,USA
401,"Lynch, Ryan and Stewart",Daniellechester,Minnesota,46659,USA
402,Newton-Young,North Katherine,Ohio,67707,USA
403,"Oliver, Hernandez and Wells",Kimberlymouth,North Carolina,76953,USA
404,Johnson-Martin,Rowlandburgh,North Carolina,66391,USA
405,Wood-Jones,Port Melvin,Ohio,14823,USA
406,"Kent, Zimmerman and Hernandez",West Jeffreyfort,Georgia,10377,USA
407,"Carrillo, Smith and Mason",Wadeport,Tennessee,43786,USA
408,Schmidt-Merritt,Bethtown,Arkansas,12252,USA
409,"Mayo, Vargas and Daniels",Loweport,South Dakota,9705,USA
410,Arnold LLC,East Kristy,North Carolina,80349,USA
411,Powell Group,Barberfort,Missouri,65769,USA
412,"Stevens, Lopez and Moore",South Michaeltown,Wyoming,48535,USA
413,Williams Ltd,Joshuaside,Idaho,10012,USA
414,Davis PLC,Jacksonfurt,South Carolina,10045,USA
415,Benson-Campbell,Ibarraside,Arkansas,71630,USA
416,"Sosa, Kennedy and Williams",Stevenfort,Tennessee,34465,USA
417,Cobb-Smith,Lake Scott,Texas,66043,USA
418,Barnett Ltd,Tracystad,Maine,82565,USA
419,Miller-Harvey,South Daniel,Kentucky,12893,USA
420,"Carroll, Mack and Pennington",Birdmouth,Oregon,46891,USA
421,"Stephenson, Yoder and Lowe",Tammyland,Rhode Island,68129,USA
422,"Drake, Hammond and Williams",Rollinsborough,Maine,93554,USA
423,Stevenson LLC,New Janicemouth,Delaware,92545,USA
424,Fletcher-Allen,Smithstad,Alaska,17202,USA
425,Tyler-Freeman,Jimenezport,Alabama,71106,USA
426,Johnson Group,West Kelly,Colorado,92173,USA
427,Gentry Group,Peterstad,Hawaii,4135,USA
428,Nichols-Jimenez,Lake Jonton,California,67573,USA
429,"Kennedy, Gilbert and Young",North Leslie,Tennessee,95831,USA
430,"Kim, Jones and Daniels",South Elizabeth,New York,41602,USA
431,"Hobbs, Mitchell and Hernandez",Grayhaven,Florida,22593,USA
432,Morgan PLC,East Caseyfort,Virginia,49617,USA
433,"Jordan, Collins and Hawkins",East Chadbury,Kentucky,14556,USA
434,"Pearson, Mata and Young",West Virginiamouth,Connecticut,55163,USA
435,Galvan and Sons,Jeremyhaven,Utah,86903,USA
436,Freeman Group,Port Dianaview,New Mexico,41336,USA
437,Jacobson-Rodriguez,Alexandrafort,Indiana,25130,USA
438,"Holland, Baker and Fox",Kimberlyberg,Maryland,68148,USA
439,Fernandez-Ford,Port Pamfort,Tennessee,47117,USA
440,"Taylor, Mendez and Andrews",West Christian,Alaska,36058,USA
441,"Ward, Campbell and Burnett",Jaychester,North Carolina,5280,USA
442,"Perez, Leonard and Noble",South Trevor,Hawaii,23454,USA
443,"Lewis, Bradshaw and Andrews",Lindseyborough,Arkansas,90764,USA
444,Ibarra LLC,Parkshaven,Colorado,85299,USA
445,Barrera and Sons,Port Briana,Michigan,56153,USA
446,Shah-Baker,Lindsayport,Wisconsin,46528,USA
447,Nelson-Garza,West Lorishire,Minnesota,86677,USA
448,Munoz-Ryan,Martinezville,Tennessee,99026,USA
449,Nunez Group,Lake Alexismouth,Ohio,29927,USA
450,"Todd, Garcia and Daniels",Stevenfurt,Georgia,2814,USA
451,"Barker, Hurst and Huffman",Alexanderside,South Carolina,60292,USA
452,"Terrell, Dominguez and Crane",Carlosshire,Utah,31995,USA
453,"Bolton, Vasquez and Smith",West Alishaland,Oregon,79187,USA
454,Lee-Garcia,Garyhaven,Maine,69110,USA
455,Hayes-Phillips,East Rita,Tennessee,66563,USA
456,"Bowman, Gonzalez and Collier",Christophermouth,Wyoming,55821,USA
457,Zavala-Oliver,Jacquelinemouth,Georgia,55989,USA
458,"Taylor, Ortiz and Lynch",Thompsonport,Montana,48097,USA
459,"Smith, Williams and Shields",Joshuachester,Vermont,11899,USA
460,Conner and Sons,Rhondaton,Rhode Island,8526,USA
461,Dominguez Group,East Amyshire,Oklahoma,42236,USA
462,"Sanchez, Hammond and Webster",Paulfurt,Pennsylvania,3896,USA
463,Nicholson-Johnson,Munozport,Montana,87750,USA
464,Clarke-Rodriguez,West Christinaborough,Hawaii,97055,USA
465,White-Rubio,West Susanfurt,Florida,54458,USA
466,Walker-French,Port Jessica,Texas,70800,USA
467,Carr-Noble,South Tiffanyberg,Maine,82550,USA
468,Foster-Allen,Summerston,Colorado,65021,USA
469,"Robinson, Mercado and Vaughn",Port Christina,Delaware,56394,USA
470,"King, Turner and Hammond",Nicholasfurt,Wisconsin,6587,USA
471,"Duffy, Flowers and Sherman",South Alexis,Wisconsin,33636,USA
472,Avila Ltd,South Samanthabury,Kentucky,73320,USA
473,Cooper Inc,South Kennethville,Nebraska,80403,USA
474,Smith and Sons,West Jessica,Hawaii,94091,USA
475,Scott and Sons,Hamiltonberg,Texas,44414,USA
476,Dorsey-Campos,Atkinsonstad,Maine,84087,USA
477,Brown-Mcgee,Holmesshire,New York,97460,USA
478,"English, James and Willis",West Prestonberg,South Dakota,4591,USA
479,"Wilson, Weaver and Bush",Lake Deniseland,Minnesota,97934,USA
480,Johnson and Sons,Johnberg,Pennsylvania,21219,USA
481,"Golden, Garcia and Lyons",West Tiffany,North Carolina,8779,USA
482,Hill and Sons,Whitakerstad,Kentucky,20593,USA
483,Morton Group,Lake Josephville,Texas,702,USA
484,Davis LLC,Rachelfurt,Arkansas,61426,USA
485,"Walters, Lewis and Foley",Georgechester,Wyoming,84507,USA
486,Thompson-Howell,South Michael,Florida,16213,USA
487,"Schneider, Chapman and Prince",Vincentburgh,Pennsylvania,70359,USA
488,Lopez Group,Johnsonview,Louisiana,78281,USA
489,Bennett-Phelps,Port Jesusmouth,Vermont,94304,USA
490,Baker and Sons,Robbinstown,Georgia,29053,USA
491,Mercer-Orr,Boyerside,Maine,89004,USA
492,"Powell, Lawrence and Espinoza",West Cheryl,Texas,25982,USA
493,Berger-Lyons,Robinmouth,West Virginia,50574,USA
494,Higgins-Miller,Port Justinburgh,Vermont,61591,USA
495,Wood-Adkins,Albertshire,New York,5645,USA
496,"Ross, Brown and Luna",West Christina,California,27357,USA
497,Tucker-Lee,Cochranshire,Florida,62150,USA
498,"Morales, Garza and Rice",South Brendashire,New Jersey,57613,USA
499,Rocha Group,West Christianmouth,Hawaii,7087,USA
500,"Gonzalez, Hart and Campbell",Sullivantown,Utah,47784,USA
501,Morris-Figueroa,South Tiffany,Delaware,22900,USA
502,Williams-Hawkins,Olsenmouth,North Dakota,68254,USA
503,Duran-Stout,East Kimberlyfort,Pennsylvania,42638,USA
504,Christensen LLC,West Edward,Wyoming,18223,USA
505,"Roberson, Wells and Johnson",South Audrey,Tennessee,65940,USA
506,Robinson PLC,Carterchester,Nevada,65124,USA
507,Weeks-Brown,Odonnellport,Michigan,72309,USA
508,Weber PLC,East Barry,Indiana,11332,USA
509,"Jackson, Newton and Graham",Lake Jason,Idaho,38554,USA
510,Sutton Inc,South Andrew,Arkansas,80688,USA
511,Davis Group,Juliestad,Tennessee,95485,USA
512,Tanner Inc,New Ryanfort,California,38904,USA
513,Gomez-Costa,Trevorville,West Virginia,86373,USA
514,"Castro, Lee and Gonzalez",Halechester,Michigan,87108,USA
515,"Jordan, Oliver and Weaver",Port Laura,Wisconsin,65141,USA
516,"Velez, Bradley and Martin",Franklinton,New Jersey,14145,USA
517,"Reed, Walter and Kim",Rachelport,Michigan,42299,USA
518,Flynn-Johnson,Lake Jennifer,Louisiana,80624,USA
519,Charles-Stevens,West Markton,Texas,11406,USA
520,"Duke, Allen and Turner",Vegafurt,Minnesota,79314,USA
521,"Murray, Roberts and Wall",South Deborah,Nevada,32180,USA
522,"Lee, Woods and Allen",West Timothyfort,Minnesota,38302,USA
523,"Marsh, Harris and Sweeney",Romeroton,Mississippi,53433,USA
524,"Crawford, Bradley and Jones",Gallagherton,Pennsylvania,66635,USA
525,"Martinez, Yu and Trujillo",Millerville,Nebraska,5487,USA
526,Stewart Group,Douglasbury,Hawaii,82553,USA
527,Perez Ltd,North Paulmouth,Nevada,20721,USA
528,Gates-Deleon,Lake Brandon,Maryland,85770,USA
529,Barry-Finley,Brownhaven,North Carolina,8318,USA
530,Greer-Jackson,Kellyville,Tennessee,33136,USA
531,Nguyen PLC,North Karen,Massachusetts,49498,USA
532,Olsen-Manning,Sabrinaside,West Virginia,37886,USA
533,"Banks, Elliott and Gomez",East Joseph,Florida,48229,USA
534,Cervantes-Lane,Lake Stephen,Florida,82878,USA
535,Hanson-Myers,Zacharyland,Arizona,1855,USA
536,"Navarro, Williams and Owens",Benitezmouth,Maryland,91214,USA
537,Lambert-Evans,West Hectorhaven,Florida,16300,USA
538,Gilbert-Hanson,Smallside,Massachusetts,74839,USA
539,Villarreal-Taylor,West Madisonview,Wisconsin,66564,USA
540,"Martinez, Sanchez and Blankenship",Simpsonchester,North Carolina,67485,USA
541,"Hernandez, Morrison and Mullins",Kingtown,Wisconsin,19067,USA
542,Stein Inc,Villegasburgh,Colorado,43921,USA
543,"Willis, Cruz and Hancock",Mullinsmouth,Illinois,35229,USA
544,"Phelps, Arnold and Gonzales",Edwardchester,Montana,64909,USA
545,Barnett LLC,South Feliciaberg,Minnesota,46856,USA
546,"Burton, Choi and Brooks",Lake Betty,Arkansas,81702,USA
547,"Hatfield, Holland and Rose",Simmonsbury,North Dakota,38155,USA
548,"Payne, Chapman and Kemp",North Savannahburgh,Arizona,93748,USA
549,Parsons Group,Lake Jerryport,Florida,94451,USA
550,Craig and Sons,New Adam,Arizona,62254,USA
551,Hunt-Phillips,Kleinshire,Indiana,90277,USA
552,"Knapp, Green and Velasquez",Cartermouth,Minnesota,79779,USA
553,"Williams, Day and Cox",Davidfort,Oregon,47654,USA
554,Day-Malone,Nelsonton,Massachusetts,40849,USA
555,"Davis, Hunt and Walker",Nelsonshire,Tennessee,49613,USA
556,Moreno and Sons,Lake Cesar,Missouri,11524,USA
557,Young Inc,West Christopherchester,New Hampshire,43482,USA
558,Kelley-Perez,Jeffreyton,Oregon,8305,USA
559,Mccullough-Peterson,West Stephen,Utah,1248,USA
560,Hughes PLC,Lynnfurt,Massachusetts,85750,USA
561,Barnes-Ferrell,East Kimberly,Mississippi,68573,USA
562,Parker-Gomez,Jeffersonborough,Indiana,13497,USA
563,Li-Walker,Cynthiafort,Tennessee,82102,USA
564,White Group,Brockland,Arkansas,18536,USA
565,"Smith, Stanton and Gillespie",Barronberg,Arizona,62312,USA
566,Acevedo LLC,Harrisshire,Hawaii,86504,USA
567,Abbott LLC,Lake Michael,Alaska,28495,USA
568,Lozano PLC,North Lindsayton,New Jersey,94322,USA
569,"Fleming, May and Cameron",New Timothy,Wisconsin,71506,USA
570,Parker-Forbes,Webstershire,Missouri,6843,USA
571,Miller-Tate,Zimmermanfurt,Nebraska,67158,USA
572,Taylor Inc,West Stephanieside,Massachusetts,2422,USA
573,Ellis-Mcgee,New Mindy,Maine,6262,USA
574,"Miller, Morgan and Briggs",East Carlatown,Missouri,7826,USA
575,"Nichols, Perry and Dean",Erictown,Nebraska,26776,USA
576,"Maldonado, Hunter and Miller",West Jordan,Connecticut,76058,USA
577,Moreno and Sons,Lake Adam,Tennessee,14933,USA
578,"Powers, Johnson and Wilson",South Ronald,Alaska,56813,USA
579,Guerra-Miranda,Davisfurt,North Carolina,61369,USA
580,Robertson-Washington,New Theresa,Texas,46707,USA
581,Bailey-Johnson,Elliottview,Mississippi,96141,USA
582,Flowers-Sanchez,South Laurie,Vermont,96799,USA
583,"Diaz, Young and Yoder",Kevinmouth,North Dakota,18500,USA
584,Andersen-Gregory,East Ericborough,Virginia,94648,USA
585,"Simpson, Wood and Clark",West Justin,Minnesota,9016,USA
586,"Walker, Jenkins and Miller",East Henryview,North Carolina,76336,USA
587,"Berry, Burton and Diaz",West Lesliehaven,New York,16725,USA
588,"Mcdowell, Estes and Anderson",Port Amyview,Kansas,22014,USA
589,"Allen, Williams and Villa",South Robert,Connecticut,51277,USA
590,"Robinson, Francis and Brewer",Ashleybury,Alaska,89383,USA
591,Warren-Martinez,Lake Samantha,South Carolina,73151,USA
592,"Newton, Hammond and Lin",Maryland,New Mexico,81186,USA
593,"Lewis, Callahan and Summers",Guerreroton,Montana,41160,USA
594,Caldwell-Robles,West Katie,New Hampshire,78949,USA
595,Gregory-Washington,New Suzanne,Florida,73870,USA
596,"Henry, Mendoza and Rowe",Dixonland,Tennessee,79565,USA
597,Gonzales-Wilson,South Amyport,Tennessee,40728,USA
598,Mata and Sons,Mckenziemouth,New Jersey,49839,USA
599,Brown-Williams,Lisaton,Mississippi,24362,USA
600,Ortiz LLC,Priceside,Oregon,59977,USA
601,Nelson-Gomez,West Carlos,Wisconsin,39686,USA
602,"Bennett, Rivera and Peterson",West Ashley,North Carolina,8167,USA
603,Day Group,Amberburgh,Montana,62618,USA
604,"May, Massey and Brooks",Whitechester,Pennsylvania,72196,USA
605,Mcclure Ltd,Townsendland,Virginia,47063,USA
606,"Davis, Johnson and Everett",New Frankville,Pennsylvania,51474,USA
607,Richardson LLC,Lake Erica,Colorado,23466,USA
608,"Webb, Jackson and Moore",Lake Jesse,Kentucky,48655,USA
609,"Reed, Fernandez and Rodriguez",Port Amber,North Dakota,86777,USA
610,Lucas-Higgins,Rosestad,Oklahoma,77001,USA
611,Weaver-Webb,South Christineberg,Utah,12012,USA
612,Gutierrez Group,Brownton,Montana,97300,USA
613,Smith-Stephens,New Mariaport,Arizona,33713,USA
614,"Thomas, Owen and Brown",Lake Charlesville,Arizona,80056,USA
615,Brown-Douglas,North Kiara,New Jersey,92736,USA
616,"Hamilton, Terrell and Bell",Teresaside,Louisiana,8816,USA
617,"Gonzalez, Rogers and Griffith",Gordonborough,California,28938,USA
618,Moore-Davis,New Brianmouth,Connecticut,89563,USA
619,Howard Inc,Lake Kayla,Wisconsin,97796,USA
620,"Morales, Haynes and Lee",Davidsonborough,New Jersey,23145,USA
621,Mccarthy and Sons,Port Brendaville,North Carolina,79868,USA
622,"Boyer, Ramirez and Brown",Lake Christineshire,West Virginia,25763,USA
623,Taylor LLC,West Leah,New Mexico,70780,USA
624,Schmidt-Butler,Jessicaberg,Ohio,8191,USA
625,Barnes LLC,East Meredith,New York,59373,USA
626,"James, Wilkinson and Thompson",Ronaldville,Minnesota,21573,USA
627,"Campbell, Smith and David",East Kathy,Vermont,15013,USA
628,"Morgan, Moore and Morgan",Barberberg,South Carolina,82918,USA
629,Black-Bauer,Port Courtney,California,60291,USA
630,"Thomas, Miller and Rodriguez",Nelsonmouth,Kansas,72350,USA
631,Sanchez-Rhodes,Melissafort,Alaska,28076,USA
632,Davis Group,Garrisonfort,Louisiana,29946,USA
633,Johnson-Mcdaniel,Romeromouth,Georgia,10252,USA
634,"Williamson, Patel and Durham",Burnsburgh,Louisiana,78932,USA
635,"Thompson, Peterson and Daugherty",Gregorybury,New Hampshire,81108,USA
636,Williams Ltd,North Eric,Tennessee,75363,USA
637,Copeland-James,East Micheletown,Maine,73079,USA
638,Cummings and Sons,Richardton,Rhode Island,10813,USA
639,Frost Group,East Jennifermouth,Hawaii,2893,USA
640,"Griffith, Stevens and Hill",New Victoria,North Carolina,42008,USA
641,"Oneal, Holder and Brown",Aaronside,Iowa,50845,USA
642,Crosby-Wright,Vanessaport,Wyoming,71910,USA
643,Cruz Group,Bradshawfort,Rhode Island,41456,USA
644,Evans Ltd,Woodsborough,Hawaii,36986,USA
645,Franklin PLC,North Williamfort,North Dakota,67654,USA
646,Patton-Bush,Taylorborough,Montana,33191,USA
647,Jordan-Barber,North Erinport,Nevada,77407,USA
648,Lutz and Sons,Ryanburgh,Georgia,93514,USA
649,"Benson, Montoya and Kim",Steeleville,Pennsylvania,84551,USA
650,"Kim, Wells and Goodman",Port Rebeccaview,Arizona,21291,USA
651,Phelps-Roth,New Wendy,West Virginia,27399,USA
652,Anderson and Sons,Ashleyborough,Missouri,50052,USA
653,"Sampson, Johnson and Thomas",Montgomerychester,Colorado,78795,USA
654,Miller PLC,Burgessview,Arkansas,69546,USA
655,Hall PLC,Evansmouth,New Jersey,81565,USA
656,Ross-Thompson,South Samuelchester,South Dakota,62017,USA
657,"Smith, Anderson and Benjamin",Amandaburgh,Montana,24495,USA
658,Ross Group,South Sean,Mississippi,16918,USA
659,"Kaufman, Williams and Moreno",Davidmouth,Kansas,50354,USA
660,Johnson-Phillips,New Kathryn,South Carolina,29832,USA
661,Brown Group,South Lisa,New Mexico,81147,USA
662,Bryan-Mitchell,Jessicaburgh,Hawaii,12534,USA
663,Lewis Group,Brendahaven,New Mexico,60830,USA
664,"Williams, Davis and Nguyen",North Kellyville,North Carolina,41823,USA
665,Morrison-Smith,Carlaborough,Massachusetts,91336,USA
666,"Davidson, Griffin and Randolph",Aguilarmouth,Iowa,88546,USA
667,Nelson-Rice,Brownberg,Arkansas,76727,USA
668,Baker-Lewis,New Michaelberg,Montana,87057,USA
669,"Craig, Lara and House",Rebeccatown,Vermont,24108,USA
670,"Morales, Smith and Thomas",West Brianbury,Vermont,43372,USA
671,"Liu, Santos and Gamble",Lunatown,Alaska,72618,USA
672,Joyce and Sons,Port Patrick,North Carolina,95150,USA
673,"Horn, Lee and Harrington",Rayside,Hawaii,44911,USA
674,Diaz Ltd,West Williamfort,Alaska,25416,USA
675,Franklin LLC,Lake Bryan,Rhode Island,18808,USA
676,Herrera PLC,Audreyborough,South Carolina,98255,USA
677,"Riley, Mccoy and Williams",New Chelseashire,Arkansas,38602,USA
678,Wilson and Sons,Lambhaven,Indiana,71173,USA
679,White-Villa,New Jose,Alaska,96747,USA
680,Parker LLC,Higginschester,Iowa,3151,USA
681,"Roberts, Walsh and Serrano",Jenniferside,Nebraska,29148,USA
682,Harrell-Smith,North Patrickfort,Montana,73447,USA
683,"Ortiz, Moore and Sullivan",South Richard,Maine,24472,USA
684,"Richard, Bruce and Montgomery",North Denise,Massachusetts,32397,USA
685,"Pierce, Robinson and Carter",West Aprilview,Ohio,53378,USA
686,"Perez, Travis and Lowe",Andreaborough,Maryland,3102,USA
687,Jones LLC,East Juliachester,Missouri,60836,USA
688,Henderson-Anthony,Natalieside,Kansas,3569,USA
689,Hurley-Evans,Port Stephanie,Nevada,52844,USA
690,"Martin, Stanley and Sanford",Kimberg,Alaska,34422,USA
691,Reeves-Chen,Ericstad,Hawaii,95152,USA
692,Thompson-Alvarado,New Scottberg,Virginia,64228,USA
693,"Owen, Mckenzie and Parks",Jonathanville,Wisconsin,81582,USA
694,Bates and Sons,Port Savannahville,Hawaii,46113,USA
695,Johnson-Reed,Murraychester,Utah,85806,USA
696,Sawyer-Hunt,Gordonville,Virginia,82857,USA
697,Miller PLC,Lake Vincent,Virginia,45104,USA
698,Myers-Buchanan,Fletchermouth,Massachusetts,24657,USA
699,"Lane, Garner and Martin",East Scott,Indiana,33305,USA
700,Bishop-Melendez,Allisonborough,Maine,13176,USA
